NORAD_CAT_ID,OBJECT_NAME,OBJECT_TYPE,EPOCH,MEAN_MOTION,ECCENTRICITY,INCLINATION,RA_OF_ASC_NODE,ARG_OF_PERICENTER,MEAN_ANOMALY,BSTAR,MEAN_MOTION_DOT,MEAN_MOTION_DDOT,TLE_LINE0,TLE_LINE1,TLE_LINE2,SEMIMAJOR_AXIS,PERIOD,APOGEE,PERIGEE,DECAYED
51721.0,STARLINK-3524,PAYLOAD,2024-03-21 21:15:31,15.08845998,0.000118,53.2167,311.4753,83.4817,276.631,-1.1581e-06,-3.06e-06,0.0,0 STARLINK-3524,1 51721U 22016H   24081.88578584 -.00000306  00000-0 -11581-5 0  9997,2 51721  53.2167 311.4753 0001180  83.4817 276.6310 15.08845998116186,6917.862,95.437,540.543,538.911,0.0
51721.0,STARLINK-3524,PAYLOAD,2024-03-21 22:50:54,15.08843262,0.0001339,53.217,311.1772,85.3889,274.7256,2.6056e-05,1.27e-06,0.0,0 STARLINK-3524,1 51721U 22016H   24081.95202407  .00000127  00000-0  26056-4 0  9994,2 51721  53.2170 311.1772 0001339  85.3889 274.7256 15.08843262115071,6917.87,95.437,540.662,538.809,0.0
51721.0,STARLINK-3524,PAYLOAD,2024-03-22 21:06:19,15.0883807,0.0001396,53.217,307.0135,76.4133,283.7015,0.00018974,2.733e-05,0.0,0 STARLINK-3524,1 51721U 22016H   24082.87939123  .00002733  00000-0  18974-3 0  9992,2 51721  53.2170 307.0135 0001396  76.4133 283.7015 15.08838070116338,6917.886,95.438,540.717,538.786,0.0
51721.0,STARLINK-3524,PAYLOAD,2024-03-22 22:41:42,15.0883738,0.0001535,53.2176,306.7172,69.3142,290.8015,0.00020292,2.943e-05,0.0,0 STARLINK-3524,1 51721U 22016H   24082.94563252  .00002943  00000-0  20292-3 0  9995,2 51721  53.2176 306.7172 0001535  69.3142 290.8015 15.08837380115226,6917.888,95.438,540.815,538.692,0.0
51721.0,STARLINK-3524,PAYLOAD,2024-03-23 20:57:06,15.08837757,0.0001198,53.2175,302.5525,103.7798,256.3327,7.8254e-05,9.58e-06,0.0,0 STARLINK-3524,1 51721U 22016H   24083.87299174  .00000958  00000-0  78254-4 0  9993,2 51721  53.2175 302.5525 0001198 103.7798 256.3327 15.08837757115362,6917.887,95.438,540.581,538.923,0.0
51721.0,STARLINK-3524,PAYLOAD,2024-03-24 08:04:47,15.0884831,0.000142,53.2166,300.4715,113.9409,246.1732,0.00014061,1.951e-05,0.0,0 STARLINK-3524,1 51721U 22016H   24084.33666598  .00001951  00000-0  14061-3 0  9992,2 51721  53.2166 300.4715 0001420 113.9409 246.1732 15.08848310116556,6917.855,95.437,540.702,538.738,0.0
51721.0,STARLINK-3524,PAYLOAD,2024-03-24 20:47:53,15.08837064,0.000148,53.2179,298.0939,94.673,265.4431,5.5837e-05,6.01e-06,0.0,0 STARLINK-3524,1 51721U 22016H   24084.86659677  .00000601  00000-0  55837-4 0  9998,2 51721  53.2179 298.0939 0001480  94.6730 265.4431 15.08837064116631,6917.889,95.438,540.778,538.731,0.0
51721.0,STARLINK-3524,PAYLOAD,2024-03-25 20:38:40,15.0884863,0.0001463,53.217,293.632,91.0889,269.027,0.00033133,4.99e-05,0.0,0 STARLINK-3524,1 51721U 22016H   24085.86019435  .00004990  00000-0  33133-3 0  9990,2 51721  53.2170 293.6320 0001463  91.0889 269.0270 15.08848630115668,6917.854,95.437,540.731,538.707,0.0
51721.0,STARLINK-3524,PAYLOAD,2024-03-26 06:10:59,15.08859035,0.0001322,53.2165,291.8473,85.9126,274.2017,0.000489,7.507e-05,0.0,0 STARLINK-3524,1 51721U 22016H   24086.25762890  .00007507  00000-0  48900-3 0  9999,2 51721  53.2165 291.8473 0001322  85.9126 274.2017 15.08859035115726,6917.822,95.436,540.602,538.773,0.0
51721.0,STARLINK-3524,PAYLOAD,2024-03-26 20:29:28,15.08832243,0.0001358,53.2166,289.1757,79.787,280.3275,-7.6392e-05,-1.503e-05,0.0,0 STARLINK-3524,1 51721U 22016H   24086.85379937 -.00001503  00000-0 -76392-4 0  9990,2 51721  53.2166 289.1757 0001358  79.7870 280.3275 15.08832243116938,6917.904,95.438,540.709,538.83,0.0
51721.0,STARLINK-3524,PAYLOAD,2024-03-27 06:01:46,15.0884152,0.0001466,53.2166,287.3889,74.0214,286.094,0.00016064,2.27e-05,0.0,0 STARLINK-3524,1 51721U 22016H   24087.25123772  .00002270  00000-0  16064-3 0  9998,2 51721  53.2166 287.3889 0001466  74.0214 286.0940 15.08841520116990,6917.876,95.437,540.755,538.727,0.0
51721.0,STARLINK-3524,PAYLOAD,2024-03-27 20:20:15,15.08833053,0.0001323,53.2166,284.7157,89.9258,270.1885,-2.752e-05,-7.26e-06,0.0,0 STARLINK-3524,1 51721U 22016H   24087.84740226 -.00000726  00000-0 -27520-4 0  9998,2 51721  53.2166 284.7157 0001323  89.9258 270.1885 15.08833053117089,6917.902,95.438,540.682,538.851,0.0
51721.0,STARLINK-3524,PAYLOAD,2024-03-28 05:52:34,15.08844368,0.0001381,53.2171,282.9299,81.7595,278.3554,0.00023308,3.424e-05,0.0,0 STARLINK-3524,1 51721U 22016H   24088.24483960  .00003424  00000-0  23308-3 0  9997,2 51721  53.2171 282.9299 0001381  81.7595 278.3554 15.08844368117141,6917.867,95.437,540.687,538.777,0.0
51721.0,STARLINK-3524,PAYLOAD,2024-03-28 21:46:25,15.08839038,0.0001385,53.217,279.9544,74.225,285.8895,0.00011028,1.468e-05,0.0,0 STARLINK-3524,1 51721U 22016H   24088.90724354  .00001468  00000-0  11028-3 0  9997,2 51721  53.2170 279.9544 0001385  74.2250 285.8895 15.08839038116124,6917.883,95.438,540.706,538.79,0.0
51721.0,STARLINK-3524,PAYLOAD,2024-03-28 23:21:48,15.08839167,0.000143,53.2165,279.6568,71.954,288.1608,0.00014393,2.003e-05,0.0,0 STARLINK-3524,1 51721U 22016H   24088.97348339  .00002003  00000-0  14393-3 0  9993,2 51721  53.2165 279.6568 0001430  71.9540 288.1608 15.08839167117254,6917.883,95.438,540.737,538.759,0.0
51721.0,STARLINK-3524,PAYLOAD,2024-03-30 05:34:07,15.08849117,8.72e-05,53.2158,274.0055,90.4396,269.6696,0.00013102,1.799e-05,0.0,0 STARLINK-3524,1 51721U 22016H   24090.23203699  .00001799  00000-0  13102-3 0  9992,2 51721  53.2158 274.0055 0000872  90.4396 269.6696 15.08849117117448,6917.853,95.437,540.321,539.114,0.0
51721.0,STARLINK-3524,PAYLOAD,2024-03-30 11:55:41,15.08847607,0.0002035,53.2114,272.8182,85.5946,274.5279,0.00020402,2.961e-05,0.0,0 STARLINK-3524,1 51721U 22016H   24090.49700265  .00002961  00000-0  20402-3 0  9994,2 51721  53.2114 272.8182 0002035  85.5946 274.5279 15.08847607116360,6917.857,95.437,541.13,538.314,0.0
51721.0,STARLINK-3524,PAYLOAD,2024-03-30 18:17:13,15.08845555,0.0002051,53.2127,271.6283,86.3885,273.7341,0.00015117,2.119e-05,0.0,0 STARLINK-3524,1 51721U 22016H   24090.76196254  .00002119  00000-0  15117-3 0  9993,2 51721  53.2127 271.6283 0002051  86.3885 273.7341 15.08845555116408,6917.863,95.437,541.147,538.31,0.0
51721.0,STARLINK-3524,PAYLOAD,2024-03-31 05:24:55,15.08843016,0.0001747,53.2146,269.549,83.7533,276.3658,0.00016197,2.291e-05,0.0,0 STARLINK-3524,1 51721U 22016H   24091.22564418  .00002291  00000-0  16197-3 0  9996,2 51721  53.2146 269.5490 0001747  83.7533 276.3658 15.08843016117598,6917.871,95.437,540.945,538.528,0.0
51721.0,STARLINK-3524,PAYLOAD,2024-03-31 11:46:27,15.08846492,0.0001594,53.2147,268.3584,89.1686,270.9489,0.0001452,2.024e-05,0.0,0 STARLINK-3524,1 51721U 22016H   24091.49060021  .00002024  00000-0  14520-3 0  9998,2 51721  53.2147 268.3584 0001594  89.1686 270.9489 15.08846492116513,6917.861,95.437,540.828,538.623,0.0
51721.0,STARLINK-3524,PAYLOAD,2024-03-31 18:08:00,15.08847307,0.0001484,53.2148,267.169,90.4043,269.7119,0.00028914,4.318e-05,0.0,0 STARLINK-3524,1 51721U 22016H   24091.75555845  .00004318  00000-0  28914-3 0  9990,2 51721  53.2148 267.1690 0001484  90.4043 269.7119 15.08847307116555,6917.858,95.437,540.75,538.696,0.0
51721.0,STARLINK-3524,PAYLOAD,2024-04-01 05:15:42,15.08844958,0.0001304,53.2169,265.0875,93.9111,266.203,0.00051735,7.956e-05,0.0,0 STARLINK-3524,1 51721U 22016H   24092.21923757  .00007956  00000-0  51735-3 0  9991,2 51721  53.2169 265.0875 0001304  93.9111 266.2030 15.08844958116626,6917.865,95.437,540.632,538.828,0.0
51721.0,STARLINK-3524,PAYLOAD,2024-04-01 21:09:33,15.08837945,0.0001367,53.2165,262.113,98.0018,262.1129,-6.5099e-07,-2.98e-06,0.0,0 STARLINK-3524,1 51721U 22016H   24092.88164113 -.00000298  00000-0 -65099-6 0  9992,2 51721  53.2165 262.1130 0001367  98.0018 262.1129 15.08837945117842,6917.887,95.438,540.697,538.806,0.0
51721.0,STARLINK-3524,PAYLOAD,2024-04-02 21:00:20,15.0884197,0.0001186,53.2163,257.6543,93.0775,267.0352,0.00015442,2.171e-05,0.0,0 STARLINK-3524,1 51721U 22016H   24093.87524277  .00002171  00000-0  15442-3 0  9997,2 51721  53.2163 257.6543 0001186  93.0775 267.0352 15.08841970116878,6917.874,95.437,540.56,538.919,0.0
51721.0,STARLINK-3524,PAYLOAD,2024-04-03 11:18:49,15.08836563,0.0001156,53.2157,254.9776,92.5989,267.5135,0.00023314,3.424e-05,0.0,0 STARLINK-3524,1 51721U 22016H   24094.47140778  .00003424  00000-0  23314-3 0  9993,2 51721  53.2157 254.9776 0001156  92.5989 267.5135 15.08836563118088,6917.891,95.438,540.556,538.956,0.0
51721.0,STARLINK-3524,PAYLOAD,2024-04-03 20:51:08,15.0883675,0.0001166,53.2155,253.1928,92.1923,267.9203,0.00012415,1.688e-05,0.0,0 STARLINK-3524,1 51721U 22016H   24094.86884830  .00001688  00000-0  12415-3 0  9990,2 51721  53.2155 253.1928 0001166  92.1923 267.9203 15.08836750117022,6917.89,95.438,540.562,538.949,0.0
51721.0,STARLINK-3524,PAYLOAD,2024-04-04 14:20:23,15.08837158,0.0001312,53.2175,249.9218,88.8926,271.2217,8.4973e-05,1.065e-05,0.0,0 STARLINK-3524,1 51721U 22016H   24095.59748948  .00001065  00000-0  84973-4 0  9998,2 51721  53.2175 249.9218 0001312  88.8926 271.2217 15.08837158117135,6917.889,95.438,540.662,538.846,0.0
51721.0,STARLINK-3524,PAYLOAD,2024-04-04 17:31:09,15.08839127,0.0001309,53.2174,249.3275,90.0046,270.1096,0.00010287,1.35e-05,0.0,0 STARLINK-3524,1 51721U 22016H   24095.72996855  .00001350  00000-0  10287-3 0  9998,2 51721  53.2174 249.3275 0001309  90.0046 270.1096 15.08839127118272,6917.883,95.438,540.654,538.843,0.0
51721.0,STARLINK-3524,PAYLOAD,2024-04-05 14:11:10,15.08838042,0.0001424,53.2181,245.4626,93.8094,266.3061,7.2893e-05,8.72e-06,0.0,0 STARLINK-3524,1 51721U 22016H   24096.59108897  .00000872  00000-0  72893-4 0  9995,2 51721  53.2181 245.4626 0001424  93.8094 266.3061 15.08838042117283,6917.886,95.438,540.736,538.766,0.0
51721.0,STARLINK-3524,PAYLOAD,2024-04-05 17:21:56,15.0884082,0.0001394,53.217,244.8676,89.8355,270.2797,0.00010288,1.35e-05,0.0,0 STARLINK-3524,1 51721U 22016H   24096.72356741  .00001350  00000-0  10288-3 0  9994,2 51721  53.2170 244.8676 0001394  89.8355 270.2797 15.08840820117300,6917.878,95.438,540.707,538.779,0.0
